
# E07 (GNSS)
1 41859U 16069A   25326.26805767  .00000033  00000+0  00000+0 0  9992
2 41859  55.3701 106.8172 0001997 330.6372  29.3141  1.70474345 55875

# E03 (GNSS)
1 41860U 16069B   25327.29491400  .00000036  00000+0  00000+0 0  9996
2 41860  55.3681 106.7842 0002382  38.5768 321.4050  1.70474566 56140

# E04 (GNSS)
1 41861U 16069C   25326.48933984  .00000034  00000+0  00000+0 0  9993
2 41861  55.3698 106.8141 0001847 284.8876  75.0549  1.70474852 55998

# E05 (GNSS)
1 41862U 16069D   25327.22190655  .00000036  00000+0  00000+0 0  9999
2 41862  55.3688 106.7867 0000888 295.1539  64.8015  1.70474665 56130

# E21 (GNSS)
1 43055U 17079A   25325.36565334  .00000021  00000+0  00000+0 0  9994
2 43055  55.1379 227.2264 0001560 313.3276  46.7355  1.70473865 49443

# E25 (GNSS)
1 43056U 17079B   25327.41672961  .00000029  00000+0  00000+0 0  9996
2 43056  55.1374 227.1701 0002661 315.3406  44.7212  1.70473857 49490

# E27 (GNSS)
1 43057U 17079C   25325.87765323  .00000023  00000+0  00000+0 0  9994
2 43057  55.1360 227.2104 0002996 327.7291  32.3312  1.70473914 49458

# E31 (GNSS)
1 43058U 17079D   25324.92454069  .00000019  00000+0  00000+0 0  9997
2 43058  55.1367 227.2342 0003198 300.1733  59.8686  1.70473929 49466

# E36 (GNSS)
1 43566U 18060C   25325.26765036 -.00000071  00000+0  00000+0 0  9998
2 43566  57.2351 347.4028 0005546 280.8027  79.1842  1.70476010 45640

# E13 (GNSS)
1 43567U 18060D   25326.66172874 -.00000067  00000+0  00000+0 0  9991
2 43567  57.2351 347.3658 0005832 278.1078  81.8726  1.70476106 45651

# E15 (GNSS)
1 43564U 18060A   25326.00034025 -.00000069  00000+0  00000+0 0  9993
2 43564  57.2323 347.3784 0006462 277.3952  82.5792  1.70476090 45630

# E33 (GNSS)
1 43565U 18060B   25326.80622827 -.00000066  00000+0  00000+0 0  9992
2 43565  57.2360 347.3598 0006128 257.6185 102.3592  1.70475804 45690

# E34 (GNSS)
1 49809U 21116A   25325.33563172 -.00000071  00000+0  00000+0 0  9995
2 49809  57.2244 347.2922 0004485 242.8245 114.0407  1.70476236 24631
