[
    {
        "OBJECT_NAME": "GSAT0207 (GALILEO 15)",
        "OBJECT_ID": "2016-069A",
        "EPOCH": "2025-11-22T06:26:00.182688",
        "MEAN_MOTION": 1.70474345,
        "ECCENTRICITY": 0.0001997,
        "INCLINATION": 55.3701,
        "RA_OF_ASC_NODE": 106.8172,
        "ARG_OF_PERICENTER": 330.6372,
        "MEAN_ANOMALY": 29.3141,
        "EPHEMERIS_TYPE": 0,
        "CLASSIFICATION_TYPE": "U",
        "NORAD_CAT_ID": 41859,
        "ELEMENT_SET_NO": 999,
        "REV_AT_EPOCH": 5587,
        "BSTAR": 0,
        "MEAN_MOTION_DOT": 3.3e-07,
        "MEAN_MOTION_DDOT": 0
    },
    {
        "OBJECT_NAME": "GSAT0212 (GALILEO 16)",
        "OBJECT_ID": "2016-069B",
        "EPOCH": "2025-11-23T07:04:40.569600",
        "MEAN_MOTION": 1.70474566,
        "ECCENTRICITY": 0.0002382,
        "INCLINATION": 55.3681,
        "RA_OF_ASC_NODE": 106.7842,
        "ARG_OF_PERICENTER": 38.5768,
        "MEAN_ANOMALY": 321.405,
        "EPHEMERIS_TYPE": 0,
        "CLASSIFICATION_TYPE": "U",
        "NORAD_CAT_ID": 41860,
        "ELEMENT_SET_NO": 999,
        "REV_AT_EPOCH": 5614,
        "BSTAR": 0,
        "MEAN_MOTION_DOT": 3.6e-07,
        "MEAN_MOTION_DDOT": 0
    },
    {
        "OBJECT_NAME": "GSAT0213 (GALILEO 17)",
        "OBJECT_ID": "2016-069C",
        "EPOCH": "2025-11-22T11:44:38.962176",
        "MEAN_MOTION": 1.70474852,
        "ECCENTRICITY": 0.0001847,
        "INCLINATION": 55.3698,
        "RA_OF_ASC_NODE": 106.8141,
        "ARG_OF_PERICENTER": 284.8876,
        "MEAN_ANOMALY": 75.0549,
        "EPHEMERIS_TYPE": 0,
        "CLASSIFICATION_TYPE": "U",
        "NORAD_CAT_ID": 41861,
        "ELEMENT_SET_NO": 999,
        "REV_AT_EPOCH": 5599,
        "BSTAR": 0,
        "MEAN_MOTION_DOT": 3.4e-07,
        "MEAN_MOTION_DDOT": 0
    },
    {
        "OBJECT_NAME": "GSAT0214 (GALILEO 18)",
        "OBJECT_ID": "2016-069D",
        "EPOCH": "2025-11-23T05:19:32.725920",
        "MEAN_MOTION": 1.70474665,
        "ECCENTRICITY": 8.88e-05,
        "INCLINATION": 55.3688,
        "RA_OF_ASC_NODE": 106.7867,
        "ARG_OF_PERICENTER": 295.1539,
        "MEAN_ANOMALY": 64.8015,
        "EPHEMERIS_TYPE": 0,
        "CLASSIFICATION_TYPE": "U",
        "NORAD_CAT_ID": 41862,
        "ELEMENT_SET_NO": 999,
        "REV_AT_EPOCH": 5613,
        "BSTAR": 0,
        "MEAN_MOTION_DOT": 3.6e-07,
        "MEAN_MOTION_DDOT": 0
    },
    {
        "OBJECT_NAME": "GSAT0215 (GALILEO 19)",
        "OBJECT_ID": "2017-079A",
        "EPOCH": "2025-11-21T08:46:32.448576",
        "MEAN_MOTION": 1.70473865,
        "ECCENTRICITY": 0.00015605,
        "INCLINATION": 55.1379,
        "RA_OF_ASC_NODE": 227.2264,
        "ARG_OF_PERICENTER": 313.3276,
        "MEAN_ANOMALY": 46.7355,
        "EPHEMERIS_TYPE": 0,
        "CLASSIFICATION_TYPE": "U",
        "NORAD_CAT_ID": 43055,
        "ELEMENT_SET_NO": 999,
        "REV_AT_EPOCH": 4944,
        "BSTAR": 0,
        "MEAN_MOTION_DOT": 2.1e-07,
        "MEAN_MOTION_DDOT": 0
    },
    {
        "OBJECT_NAME": "GSAT0216 (GALILEO 20)",
        "OBJECT_ID": "2017-079B",
        "EPOCH": "2025-11-23T10:00:05.438304",
        "MEAN_MOTION": 1.70473857,
        "ECCENTRICITY": 0.0002661,
        "INCLINATION": 55.1374,
        "RA_OF_ASC_NODE": 227.1701,
        "ARG_OF_PERICENTER": 315.3406,
        "MEAN_ANOMALY": 44.7212,
        "EPHEMERIS_TYPE": 0,
        "CLASSIFICATION_TYPE": "U",
        "NORAD_CAT_ID": 43056,
        "ELEMENT_SET_NO": 999,
        "REV_AT_EPOCH": 4949,
        "BSTAR": 0,
        "MEAN_MOTION_DOT": 2.9e-07,
        "MEAN_MOTION_DDOT": 0
    },
    {
        "OBJECT_NAME": "GSAT0217 (GALILEO 21)",
        "OBJECT_ID": "2017-079C",
        "EPOCH": "2025-11-21T21:03:49.239072",
        "MEAN_MOTION": 1.70473914,
        "ECCENTRICITY": 0.00029967,
        "INCLINATION": 55.136,
        "RA_OF_ASC_NODE": 227.2104,
        "ARG_OF_PERICENTER": 327.7291,
        "MEAN_ANOMALY": 32.3312,
        "EPHEMERIS_TYPE": 0,
        "CLASSIFICATION_TYPE": "U",
        "NORAD_CAT_ID": 43057,
        "ELEMENT_SET_NO": 999,
        "REV_AT_EPOCH": 4945,
        "BSTAR": 0,
        "MEAN_MOTION_DOT": 2.3e-07,
        "MEAN_MOTION_DDOT": 0
    },
    {
        "OBJECT_NAME": "GSAT0218 (GALILEO 22)",
        "OBJECT_ID": "2017-079D",
        "EPOCH": "2025-11-20T22:11:20.315616",
        "MEAN_MOTION": 1.70473929,
        "ECCENTRICITY": 0.00031981,
        "INCLINATION": 55.1367,
        "RA_OF_ASC_NODE": 227.2342,
        "ARG_OF_PERICENTER": 300.1733,
        "MEAN_ANOMALY": 59.8686,
        "EPHEMERIS_TYPE": 0,
        "CLASSIFICATION_TYPE": "U",
        "NORAD_CAT_ID": 43058,
        "ELEMENT_SET_NO": 999,
        "REV_AT_EPOCH": 4946,
        "BSTAR": 0,
        "MEAN_MOTION_DOT": 1.9e-07,
        "MEAN_MOTION_DDOT": 0
    },
    {
        "OBJECT_NAME": "GSAT0221 (GALILEO 25)",
        "OBJECT_ID": "2018-060A",
        "EPOCH": "2025-11-22T00:00:29.397600",
        "MEAN_MOTION": 1.7047609,
        "ECCENTRICITY": 0.0006462,
        "INCLINATION": 57.2323,
        "RA_OF_ASC_NODE": 347.3784,
        "ARG_OF_PERICENTER": 277.3952,
        "MEAN_ANOMALY": 82.5792,
        "EPHEMERIS_TYPE": 0,
        "CLASSIFICATION_TYPE": "U",
        "NORAD_CAT_ID": 43564,
        "ELEMENT_SET_NO": 999,
        "REV_AT_EPOCH": 4563,
        "BSTAR": 0,
        "MEAN_MOTION_DOT": -6.9e-07,
        "MEAN_MOTION_DDOT": 0
    },
    {
        "OBJECT_NAME": "GSAT0222 (GALILEO 26)",
        "OBJECT_ID": "2018-060B",
        "EPOCH": "2025-11-22T19:20:58.122528",
        "MEAN_MOTION": 1.70475804,
        "ECCENTRICITY": 0.00061285,
        "INCLINATION": 57.236,
        "RA_OF_ASC_NODE": 347.3598,
        "ARG_OF_PERICENTER": 257.6185,
        "MEAN_ANOMALY": 102.3592,
        "EPHEMERIS_TYPE": 0,
        "CLASSIFICATION_TYPE": "U",
        "NORAD_CAT_ID": 43565,
        "ELEMENT_SET_NO": 999,
        "REV_AT_EPOCH": 4569,
        "BSTAR": 0,
        "MEAN_MOTION_DOT": -6.6e-07,
        "MEAN_MOTION_DDOT": 0
    },
    {
        "OBJECT_NAME": "GSAT0219 (GALILEO 23)",
        "OBJECT_ID": "2018-060C",
        "EPOCH": "2025-11-21T06:25:24.991104",
        "MEAN_MOTION": 1.7047601,
        "ECCENTRICITY": 0.00055461,
        "INCLINATION": 57.2351,
        "RA_OF_ASC_NODE": 347.4028,
        "ARG_OF_PERICENTER": 280.8027,
        "MEAN_ANOMALY": 79.1842,
        "EPHEMERIS_TYPE": 0,
        "CLASSIFICATION_TYPE": "U",
        "NORAD_CAT_ID": 43566,
        "ELEMENT_SET_NO": 999,
        "REV_AT_EPOCH": 4564,
        "BSTAR": 0,
        "MEAN_MOTION_DOT": -7.1e-07,
        "MEAN_MOTION_DDOT": 0
    },
    {
        "OBJECT_NAME": "GSAT0220 (GALILEO 24)",
        "OBJECT_ID": "2018-060D",
        "EPOCH": "2025-11-22T15:52:53.363136",
        "MEAN_MOTION": 1.70476106,
        "ECCENTRICITY": 0.00058324,
        "INCLINATION": 57.2351,
        "RA_OF_ASC_NODE": 347.3658,
        "ARG_OF_PERICENTER": 278.1078,
        "MEAN_ANOMALY": 81.8726,
        "EPHEMERIS_TYPE": 0,
        "CLASSIFICATION_TYPE": "U",
        "NORAD_CAT_ID": 43567,
        "ELEMENT_SET_NO": 999,
        "REV_AT_EPOCH": 4565,
        "BSTAR": 0,
        "MEAN_MOTION_DOT": -6.7e-07,
        "MEAN_MOTION_DDOT": 0
    },
    {
        "OBJECT_NAME": "GSAT0223 (GALILEO 27)",
        "OBJECT_ID": "2021-116A",
        "EPOCH": "2025-11-21T08:03:18.580608",
        "MEAN_MOTION": 1.70476236,
        "ECCENTRICITY": 0.00044859,
        "INCLINATION": 57.2244,
        "RA_OF_ASC_NODE": 347.2922,
        "ARG_OF_PERICENTER": 242.8245,
        "MEAN_ANOMALY": 114.0407,
        "EPHEMERIS_TYPE": 0,
        "CLASSIFICATION_TYPE": "U",
        "NORAD_CAT_ID": 49809,
        "ELEMENT_SET_NO": 999,
        "REV_AT_EPOCH": 2463,
        "BSTAR": 0,
        "MEAN_MOTION_DOT": -7.1e-07,
        "MEAN_MOTION_DDOT": 0
    }
]